[{"spaceTrack":{"CCSDS_OMM_VERS":"2.0","COMMENT":"GENERATED VIA SPACE-TRACK.ORG API","CREATION_DATE":"2021-07-02T17:51:43","ORIGINATOR":"18 SPCS","OBJECT_NAME":"STARLINK-1536","OBJECT_ID":"2020-055AV","CENTER_NAME":"EARTH","REF_FRAME":"TEME","TIME_SYSTEM":"UTC","MEAN_ELEMENT_THEORY":"SGP4","EPOCH":"2021-07-02T12:44:09.426624","MEAN_MOTION":15.0640059,"ECCENTRICITY":0.0000325,"INCLINATION":53.0565,"RA_OF_ASC_NODE":218.315,"ARG_OF_PERICENTER":133.4076,"MEAN_ANOMALY":226.6941,"EPHEMERIS_TYPE":0,"CLASSIFICATION_TYPE":"U","NORAD_CAT_ID":46070,"ELEMENT_SET_NO":999,"REV_AT_EPOCH":5140,"BSTAR":0.000037194,"MEAN_MOTION_DOT":0.00000273,"MEAN_MOTION_DDOT":0,"SEMIMAJOR_AXIS":6925.347,"PERIOD":95.592,"APOAPSIS":547.437,"PERIAPSIS":546.987,"OBJECT_TYPE":"PAYLOAD","RCS_SIZE":"LARGE","COUNTRY_CODE":"US","LAUNCH_DATE":"2020-08-07","SITE":"AFETR","DECAY_DATE":null,"DECAYED":0,"FILE":3068555,"GP_ID":180166959,"TLE_LINE0":"0 STARLINK-1536","TLE_LINE1":"1 46070U 20055AV  21183.53066466  .00000273  00000-0  37194-4 0  9990","TLE_LINE2":"2 46070  53.0565 218.3150 0000325 133.4076 226.6941 15.06400590 51407"},"version":"v1.0","launch":"5ed9819a1f30554030d45c29","longitude":11.428145160043496,"latitude":47.5818779557104,"height_km":552.4013681569159,"velocity_kms":7.591471787209566,"id":"5f36cb5abd888300062740dc"},{"spaceTrack":{"CCSDS_OMM_VERS":"2.0","COMMENT":"GENERATED VIA SPACE-TRACK.ORG API","CREATION_DATE":"2021-07-02T17:51:43","ORIGINATOR":"18 SPCS","OBJECT_NAME":"STARLINK-1535","OBJECT_ID":"2020-055Z","CENTER_NAME":"EARTH","REF_FRAME":"TEME","TIME_SYSTEM":"UTC","MEAN_ELEMENT_THEORY":"SGP4","EPOCH":"2021-07-02T12:57:26.850240","MEAN_MOTION":15.06388917,"ECCENTRICITY":0.0000802,"INCLINATION":53.0535,"RA_OF_ASC_NODE":238.2554,"ARG_OF_PERICENTER":127.5093,"MEAN_ANOMALY":232.5969,"EPHEMERIS_TYPE":0,"CLASSIFICATION_TYPE":"U","NORAD_CAT_ID":46050,"ELEMENT_SET_NO":999,"REV_AT_EPOCH":5112,"BSTAR":0.00012023,"MEAN_MOTION_DOT":0.0000151,"MEAN_MOTION_DDOT":0,"SEMIMAJOR_AXIS":6925.383,"PERIOD":95.593,"APOAPSIS":547.803,"PERIAPSIS":546.692,"OBJECT_TYPE":"PAYLOAD","RCS_SIZE":"LARGE","COUNTRY_CODE":"US","LAUNCH_DATE":"2020-08-07","SITE":"AFETR","DECAY_DATE":null,"DECAYED":0,"FILE":3068555,"GP_ID":180165704,"TLE_LINE0":"0 STARLINK-1535","TLE_LINE1":"1 46050U 20055Z   21183.53989410  .00001510  00000-0  12023-3 0  9999","TLE_LINE2":"2 46050  53.0535 238.2554 0000802 127.5093 232.5969 15.06388917 51127"},"version":"v1.0","launch":"5ed9819a1f30554030d45c29","longitude":-13.13196466248046,"latitude":13.562848471697604,"height_km":547.5792291626267,"velocity_kms":7.5904247621517085,"id":"5f36cb5abd888300062740da"},{"spaceTrack":{"CCSDS_OMM_VERS":"2.0","COMMENT":"GENERATED VIA SPACE-TRACK.ORG API","CREATION_DATE":"2021-07-02T17:51:43","ORIGINATOR":"18 SPCS","OBJECT_NAME":"STARLINK-1579","OBJECT_ID":"2020-055BJ","CENTER_NAME":"EARTH","REF_FRAME":"TEME","TIME_SYSTEM":"UTC","MEAN_ELEMENT_THEORY":"SGP4","EPOCH":"2021-07-02T11:56:25.069632","MEAN_MOTION":15.06388419,"ECCENTRICITY":0.0000534,"INCLINATION":53.0548,"RA_OF_ASC_NODE":218.4595,"ARG_OF_PERICENTER":113.9945,"MEAN_ANOMALY":246.11,"EPHEMERIS_TYPE":0,"CLASSIFICATION_TYPE":"U","NORAD_CAT_ID":46083,"ELEMENT_SET_NO":999,"REV_AT_EPOCH":5138,"BSTAR":0.000045137,"MEAN_MOTION_DOT":0.00000391,"MEAN_MOTION_DDOT":0,"SEMIMAJOR_AXIS":6925.384,"PERIOD":95.593,"APOAPSIS":547.619,"PERIAPSIS":546.879,"OBJECT_TYPE":"PAYLOAD","RCS_SIZE":"LARGE","COUNTRY_CODE":"US","LAUNCH_DATE":"2020-08-07","SITE":"AFETR","DECAY_DATE":null,"DECAYED":0,"FILE":3068555,"GP_ID":180167212,"TLE_LINE0":"0 STARLINK-1579","TLE_LINE1":"1 46083U 20055BJ  21183.49751238  .00000391  00000-0  45137-4 0  9994","TLE_LINE2":"2 46083  53.0548 218.4595 0000534 113.9945 246.1100 15.06388419 51382"},"version":"v1.0","launch":"5ed9819a1f30554030d45c29","longitude":-168.76005270177714,"latitude":-47.51298028911621,"height_km":563.7256353413204,"velocity_kms":7.5790698939495345,"id":"5f36cb5abd888300062740df"},{"spaceTrack":{"CCSDS_OMM_VERS":"2.0","COMMENT":"GENERATED VIA SPACE-TRACK.ORG API","CREATION_DATE":"2021-07-02T17:51:43","ORIGINATOR":"18 SPCS","OBJECT_NAME":"STARLINK-1529","OBJECT_ID":"2020-055AS","CENTER_NAME":"EARTH","REF_FRAME":"TEME","TIME_SYSTEM":"UTC","MEAN_ELEMENT_THEORY":"SGP4","EPOCH":"2021-07-02T11:45:46.414656","MEAN_MOTION":15.06407084,"ECCENTRICITY":0.0000128,"INCLINATION":53.0551,"RA_OF_ASC_NODE":218.4988,"ARG_OF_PERICENTER":15.2099,"MEAN_ANOMALY":344.8894,"EPHEMERIS_TYPE":0,"CLASSIFICATION_TYPE":"U","NORAD_CAT_ID":46067,"ELEMENT_SET_NO":999,"REV_AT_EPOCH":5139,"BSTAR":0.000043645,"MEAN_MOTION_DOT":0.00000369,"MEAN_MOTION_DDOT":0,"SEMIMAJOR_AXIS":6925.327,"PERIOD":95.592,"APOAPSIS":547.28,"PERIAPSIS":547.103,"OBJECT_TYPE":"PAYLOAD","RCS_SIZE":"LARGE","COUNTRY_CODE":"US","LAUNCH_DATE":"2020-08-07","SITE":"AFETR","DECAY_DATE":null,"DECAYED":0,"FILE":3068555,"GP_ID":180165956,"TLE_LINE0":"0 STARLINK-1529","TLE_LINE1":"1 46067U 20055AS  21183.49012054  .00000369  00000-0  43645-4 0  9999","TLE_LINE2":"2 46067  53.0551 218.4988 0000128  15.2099 344.8894 15.06407084 51394"},"version":"v1.0","launch":"5ed9819a1f30554030d45c29","longitude":-106.37181677408172,"latitude":-49.954789232459696,"height_km":564.4026923847614,"velocity_kms":7.5788451136783745,"id":"5f36cb5abd888300062740de"},{"spaceTrack":{"CCSDS_OMM_VERS":"2.0","COMMENT":"GENERATED VIA SPACE-TRACK.ORG API","CREATION_DATE":"2021-07-02T17:51:43","ORIGINATOR":"18 SPCS","OBJECT_NAME":"STARLINK-1561","OBJECT_ID":"2020-055AF","CENTER_NAME":"EARTH","REF_FRAME":"TEME","TIME_SYSTEM":"UTC","MEAN_ELEMENT_THEORY":"SGP4","EPOCH":"2021-07-02T11:37:48.014400","MEAN_MOTION":15.06406114,"ECCENTRICITY":0.0000784,"INCLINATION":53.0536,"RA_OF_ASC_NODE":238.5214,"ARG_OF_PERICENTER":136.5553,"MEAN_ANOMALY":223.5497,"EPHEMERIS_TYPE":0,"CLASSIFICATION_TYPE":"U","NORAD_CAT_ID":46056,"ELEMENT_SET_NO":999,"REV_AT_EPOCH":5112,"BSTAR":0.000092153,"MEAN_MOTION_DOT":0.00001092,"MEAN_MOTION_DDOT":0,"SEMIMAJOR_AXIS":6925.33,"PERIOD":95.592,"APOAPSIS":547.738,"PERIAPSIS":546.652,"OBJECT_TYPE":"PAYLOAD","RCS_SIZE":"LARGE","COUNTRY_CODE":"US","LAUNCH_DATE":"2020-08-07","SITE":"AFETR","DECAY_DATE":null,"DECAYED":0,"FILE":3068555,"GP_ID":180166706,"TLE_LINE0":"0 STARLINK-1561","TLE_LINE1":"1 46056U 20055AF  21183.48458350  .00001092  00000-0  92153-4 0  9991","TLE_LINE2":"2 46056  53.0536 238.5214 0000784 136.5553 223.5497 15.06406114 51126"},"version":"v1.0","launch":"5ed9819a1f30554030d45c29","longitude":-52.68664409118339,"latitude":-33.09574953553662,"height_km":558.0679688122882,"velocity_kms":7.582051177814685,"id":"5f36cb5abd888300062740dd"},{"spaceTrack":{"CCSDS_OMM_VERS":"2.0","COMMENT":"GENERATED VIA SPACE-TRACK.ORG API","CREATION_DATE":"2021-07-02T17:51:43","ORIGINATOR":"18 SPCS","OBJECT_NAME":"STARLINK-1551","OBJECT_ID":"2020-055BA","CENTER_NAME":"EARTH","REF_FRAME":"TEME","TIME_SYSTEM":"UTC","MEAN_ELEMENT_THEORY":"SGP4","EPOCH":"2021-07-02T12:49:28.299648","MEAN_MOTION":15.06400689,"ECCENTRICITY":0.0000193,"INCLINATION":53.0565,"RA_OF_ASC_NODE":218.294,"ARG_OF_PERICENTER":122.952,"MEAN_ANOMALY":237.1487,"EPHEMERIS_TYPE":0,"CLASSIFICATION_TYPE":"U","NORAD_CAT_ID":46075,"ELEMENT_SET_NO":999,"REV_AT_EPOCH":5139,"BSTAR":0.000058063,"MEAN_MOTION_DOT":0.00000584,"MEAN_MOTION_DDOT":0,"SEMIMAJOR_AXIS":6925.346,"PERIOD":95.592,"APOAPSIS":547.345,"PERIAPSIS":547.078,"OBJECT_TYPE":"PAYLOAD","RCS_SIZE":"LARGE","COUNTRY_CODE":"US","LAUNCH_DATE":"2020-08-07","SITE":"AFETR","DECAY_DATE":null,"DECAYED":0,"FILE":3068555,"GP_ID":180167211,"TLE_LINE0":"0 STARLINK-1551","TLE_LINE1":"1 46075U 20055BA  21183.53435532  .00000584  00000-0  58063-4 0  9992","TLE_LINE2":"2 46075  53.0565 218.2940 0000193 122.9520 237.1487 15.06400689 51397"},"version":"v1.0","launch":"5ed9819a1f30554030d45c29","longitude":-10.63775607317854,"latitude":35.972321839680745,"height_km":549.9455000095768,"velocity_kms":7.59156899032439,"id":"5f36cb5abd888300062740e0"},{"spaceTrack":{"CCSDS_OMM_VERS":"2.0","COMMENT":"GENERATED VIA SPACE-TRACK.ORG API","CREATION_DATE":"2021-07-02T17:51:43","ORIGINATOR":"18 SPCS","OBJECT_NAME":"STARLINK-1556","OBJECT_ID":"2020-055G","CENTER_NAME":"EARTH","REF_FRAME":"TEME","TIME_SYSTEM":"UTC","MEAN_ELEMENT_THEORY":"SGP4","EPOCH":"2021-07-02T12:24:15.423552","MEAN_MOTION":15.06401602,"ECCENTRICITY":0.0000591,"INCLINATION":53.0539,"RA_OF_ASC_NODE":248.3775,"ARG_OF_PERICENTER":129.7253,"MEAN_ANOMALY":230.3788,"EPHEMERIS_TYPE":0,"CLASSIFICATION_TYPE":"U","NORAD_CAT_ID":46033,"ELEMENT_SET_NO":999,"REV_AT_EPOCH":5095,"BSTAR":0.000068327,"MEAN_MOTION_DOT":0.00000737,"MEAN_MOTION_DDOT":0,"SEMIMAJOR_AXIS":6925.344,"PERIOD":95.592,"APOAPSIS":547.618,"PERIAPSIS":546.799,"OBJECT_TYPE":"PAYLOAD","RCS_SIZE":"LARGE","COUNTRY_CODE":"US","LAUNCH_DATE":"2020-08-07","SITE":"AFETR","DECAY_DATE":null,"DECAYED":0,"FILE":3068555,"GP_ID":180166454,"TLE_LINE0":"0 STARLINK-1556","TLE_LINE1":"1 46033U 20055G   21183.51684518  .00000737  00000-0  68327-4 0  9998","TLE_LINE2":"2 46033  53.0539 248.3775 0000591 129.7253 230.3788 15.06401602 50958"},"version":"v1.0","launch":"5ed9819a1f30554030d45c29","longitude":141.46803968854195,"latitude":29.49193702186551,"height_km":548.4149177692079,"velocity_kms":7.591914262799912,"id":"5f36cb5abd888300062740e1"}]